[{"OBJECT_NAME":"IRIDIUM 142","OBJECT_ID":"2018-030H","EPOCH":"2026-03-09T19:54:27.398592","MEAN_MOTION":14.34217645,"ECCENTRICITY":0.000204,"INCLINATION":86.4006,"RA_OF_ASC_NODE":331.9079,"ARG_OF_PERICENTER":94.7375,"MEAN_ANOMALY":265.4053,"EPHEMERIS_TYPE":0,"CLASSIFICATION_TYPE":"U","NORAD_CAT_ID":43256,"ELEMENT_SET_NO":999,"REV_AT_EPOCH":41589,"BSTAR":-2.157633e-6,"MEAN_MOTION_DOT":1.4e-7,"MEAN_MOTION_DDOT":0},{"OBJECT_NAME":"CZ-6A DEB","OBJECT_ID":"2024-140ACH","EPOCH":"2026-03-08T12:18:28.152576","MEAN_MOTION":14.41220113,"ECCENTRICITY":0.00481361,"INCLINATION":88.7182,"RA_OF_ASC_NODE":264.474,"ARG_OF_PERICENTER":326.1426,"MEAN_ANOMALY":33.6705,"EPHEMERIS_TYPE":0,"CLASSIFICATION_TYPE":"U","NORAD_CAT_ID":61817,"ELEMENT_SET_NO":999,"REV_AT_EPOCH":7915,"BSTAR":0.00079003991,"MEAN_MOTION_DOT":2.6e-5,"MEAN_MOTION_DDOT":0}]
